{"type": "FeatureCollection", "features": [ {"type": "Feature", "properties": {"norad_id": 57401, "name": "TIANMU-1 09", "group": "weather", "lat": -70.31396078419729, "lon": -158.07719151295964, "alt_km": 493.03071861471744, "timestamp": "2025-12-19T20:42:59.724061+00:00", "meta": {"OBJECT_NAME": "TIANMU-1 09", "OBJECT_ID": "2023-101C", "EPOCH": "2025-12-19T07:02:48.876000", "MEAN_MOTION": 15.28176152, "ECCENTRICITY": 0.00065777, "INCLINATION": 97.2816, "RA_OF_ASC_NODE": 42.3062, "ARG_OF_PERICENTER": 66.2092, "MEAN_ANOMALY": 293.9837, "EPHEMERIS_TYPE": 0, "CLASSIFICATION_TYPE": "U", "NORAD_CAT_ID": 57401, "ELEMENT_SET_NO": 999, "REV_AT_EPOCH": 13415, "BSTAR": 0.0002089968, "MEAN_MOTION_DOT": 5.67e-05, "MEAN_MOTION_DDOT": 0}, "tle": {"line1": "1 57401U 23101C   25353.29362125  .00005670  00000+0  20900-3 0  9993", "line2": "2 57401  97.2816  42.3062 0006577  66.2092 293.9837 15.28176152134152"}}, "geometry": {"type": "Point", "coordinates": [-158.07719151295964, -70.31396078419729]}}, {"type": "Feature", "properties": {"norad_id": 57402, "name": "TIANMU-1 10", "group": "weather", "lat": 62.381901221848544, "lon": 29.557855105743638, "alt_km": 469.54348030856727, "timestamp": "2025-12-19T20:42:59.724071+00:00", "meta": {"OBJECT_NAME": "TIANMU-1 10", "OBJECT_ID": "2023-101D", "EPOCH": "2025-12-19T06:17:50.423424", "MEAN_MOTION": 15.28167407, "ECCENTRICITY": 0.0008289, "INCLINATION": 97.2896, "RA_OF_ASC_NODE": 43.1323, "ARG_OF_PERICENTER": 64.6365, "MEAN_ANOMALY": 295.5732, "EPHEMERIS_TYPE": 0, "CLASSIFICATION_TYPE": "U", "NORAD_CAT_ID": 57402, "ELEMENT_SET_NO": 999, "REV_AT_EPOCH": 13414, "BSTAR": 0.00020259452, "MEAN_MOTION_DOT": 5.494e-05, "MEAN_MOTION_DDOT": 0}, "tle": {"line1": "1 57402U 23101D   25353.26238916  .00005494  00000+0  20259-3 0  9992", "line2": "2 57402  97.2896  43.1323 0008289  64.6365 295.5732 15.28167407134141"}}, "geometry": {"type": "Point", "coordinates": [29.557855105743638, 62.381901221848544]}}, {"type": "Feature", "properties": {"norad_id": 57490, "name": "FENGYUN 3F", "group": "weather", "lat": 70.14975318295208, "lon": 36.921422251507344, "alt_km": 818.470079147809, "timestamp": "2025-12-19T20:42:59.724082+00:00", "meta": {"OBJECT_NAME": "FENGYUN 3F", "OBJECT_ID": "2023-111A", "EPOCH": "2025-12-19T06:50:54.837024", "MEAN_MOTION": 14.1989519, "ECCENTRICITY": 7.344e-05, "INCLINATION": 98.7076, "RA_OF_ASC_NODE": 61.4729, "ARG_OF_PERICENTER": 112.2291, "MEAN_ANOMALY": 247.8963, "EPHEMERIS_TYPE": 0, "CLASSIFICATION_TYPE": "U", "NORAD_CAT_ID": 57490, "ELEMENT_SET_NO": 999, "REV_AT_EPOCH": 12333, "BSTAR": 5.0318414e-05, "MEAN_MOTION_DOT": 6.3e-07, "MEAN_MOTION_DDOT": 0}, "tle": {"line1": "1 57490U 23111A   25353.28535691  .00000063  00000+0  50318-4 0  9999", "line2": "2 57490  98.7076  61.4729 0000734 112.2291 247.8963 14.19895190123333"}}, "geometry": {"type": "Point", "coordinates": [36.921422251507344, 70.14975318295208]}}, {"type": "Feature", "properties": {"norad_id": 58584, "name": "ARKTIKA-M 2", "group": "weather", "lat": 40.83888757556776, "lon": -160.00206393855217, "alt_km": 22783.234893313675, "timestamp": "2025-12-19T20:42:59.724094+00:00", "meta": {"OBJECT_NAME": "ARKTIKA-M 2", "OBJECT_ID": "2023-198A", "EPOCH": "2025-12-18T19:26:38.867712", "MEAN_MOTION": 2.00602974, "ECCENTRICITY": 0.68653183, "INCLINATION": 63.225, "RA_OF_ASC_NODE": 174.2298, "ARG_OF_PERICENTER": 268.0801, "MEAN_ANOMALY": 18.8403, "EPHEMERIS_TYPE": 0, "CLASSIFICATION_TYPE": "U", "NORAD_CAT_ID": 58584, "ELEMENT_SET_NO": 999, "REV_AT_EPOCH": 1470, "BSTAR": 0, "MEAN_MOTION_DOT": 2e-06, "MEAN_MOTION_DDOT": 0}, "tle": {"line1": "1 58584U 23198A   25352.81017208  .00000200  00000+0  00000+0 0  9997", "line2": "2 58584  63.2250 174.2298 6865318 268.0801  18.8403  2.00602974 14701"}}, "geometry": {"type": "Point", "coordinates": [-160.00206393855217, 40.83888757556776]}}, {"type": "Feature", "properties": {"norad_id": 58645, "name": "TIANMU-1 11", "group": "weather", "lat": 26.47291242400318, "lon": -162.94790454701945, "alt_km": 494.045338296135, "timestamp": "2025-12-19T20:42:59.724107+00:00", "meta": {"OBJECT_NAME": "TIANMU-1 11", "OBJECT_ID": "2023-205A", "EPOCH": "2025-12-19T07:26:43.135008", "MEAN_MOTION": 15.24675764, "ECCENTRICITY": 0.00075895, "INCLINATION": 97.3597, "RA_OF_ASC_NODE": 12.8183, "ARG_OF_PERICENTER": 282.6587, "MEAN_ANOMALY": 77.3802, "EPHEMERIS_TYPE": 0, "CLASSIFICATION_TYPE": "U", "NORAD_CAT_ID": 58645, "ELEMENT_SET_NO": 999, "REV_AT_EPOCH": 11009, "BSTAR": 0.00018570454, "MEAN_MOTION_DOT": 4.521e-05, "MEAN_MOTION_DDOT": 0}, "tle": {"line1": "1 58645U 23205A   25353.31022147  .00004521  00000+0  18570-3 0  9993", "line2": "2 58645  97.3597  12.8183 0007589 282.6587  77.3802 15.24675764110095"}}, "geometry": {"type": "Point", "coordinates": [-162.94790454701945, 26.47291242400318]}}, {"type": "Feature", "properties": {"norad_id": 58646, "name": "TIANMU-1 12", "group": "weather", "lat": 2.40987256096182, "lon": 12.853041384218823, "alt_km": 495.76994230796936, "timestamp": "2025-12-19T20:42:59.724120+00:00", "meta": {"OBJECT_NAME": "TIANMU-1 12", "OBJECT_ID": "2023-205B", "EPOCH": "2025-12-19T08:06:14.741568", "MEAN_MOTION": 15.24560843, "ECCENTRICITY": 0.00057709, "INCLINATION": 97.3584, "RA_OF_ASC_NODE": 12.6485, "ARG_OF_PERICENTER": 261.1988, "MEAN_ANOMALY": 98.8597, "EPHEMERIS_TYPE": 0, "CLASSIFICATION_TYPE": "U", "NORAD_CAT_ID": 58646, "ELEMENT_SET_NO": 999, "REV_AT_EPOCH": 11008, "BSTAR": 0.00020321736, "MEAN_MOTION_DOT": 4.936e-05, "MEAN_MOTION_DDOT": 0}, "tle": {"line1": "1 58646U 23205B   25353.33767062  .00004936  00000+0  20322-3 0  9996", "line2": "2 58646  97.3584  12.6485 0005770 261.1988  98.8597 15.24560843110081"}}, "geometry": {"type": "Point", "coordinates": [12.853041384218823, 2.40987256096182]}}, {"type": "Feature", "properties": {"norad_id": 58647, "name": "TIANMU-1 13", "group": "weather", "lat": 0.3436070071751469, "lon": -166.58688477094523, "alt_km": 492.63784216197564, "timestamp": "2025-12-19T20:42:59.724130+00:00", "meta": {"OBJECT_NAME": "TIANMU-1 13", "OBJECT_ID": "2023-205C", "EPOCH": "2025-12-19T07:19:46.426944", "MEAN_MOTION": 15.24603593, "ECCENTRICITY": 0.00062182, "INCLINATION": 97.3612, "RA_OF_ASC_NODE": 12.8206, "ARG_OF_PERICENTER": 237.7462, "MEAN_ANOMALY": 122.3173, "EPHEMERIS_TYPE": 0, "CLASSIFICATION_TYPE": "U", "NORAD_CAT_ID": 58647, "ELEMENT_SET_NO": 999, "REV_AT_EPOCH": 11007, "BSTAR": 0.00018776601, "MEAN_MOTION_DOT": 4.561e-05, "MEAN_MOTION_DDOT": 0}, "tle": {"line1": "1 58647U 23205C   25353.30539846  .00004561  00000+0  18777-3 0  9996", "line2": "2 58647  97.3612  12.8206 0006218 237.7462 122.3173 15.24603593110073"}}, "geometry": {"type": "Point", "coordinates": [-166.58688477094523, 0.3436070071751469]}}, {"type": "Feature", "properties": {"norad_id": 58648, "name": "TIANMU-1 14", "group": "weather", "lat": -82.63656864335523, "lon": 100.82689462657042, "alt_km": 495.1787086055583, "timestamp": "2025-12-19T20:42:59.724140+00:00", "meta": {"OBJECT_NAME": "TIANMU-1 14", "OBJECT_ID": "2023-205D", "EPOCH": "2025-12-19T06:55:58.347264", "MEAN_MOTION": 15.24586731, "ECCENTRICITY": 0.00069583, "INCLINATION": 97.3544, "RA_OF_ASC_NODE": 12.147, "ARG_OF_PERICENTER": 243.8098, "MEAN_ANOMALY": 116.2425, "EPHEMERIS_TYPE": 0, "CLASSIFICATION_TYPE": "U", "NORAD_CAT_ID": 58648, "ELEMENT_SET_NO": 999, "REV_AT_EPOCH": 11007, "BSTAR": 0.00019644304, "MEAN_MOTION_DOT": 4.773e-05, "MEAN_MOTION_DDOT": 0}, "tle": {"line1": "1 58648U 23205D   25353.28886976  .00004773  00000+0  19644-3 0  9992", "line2": "2 58648  97.3544  12.1470 0006958 243.8098 116.2425 15.24586731110074"}}, "geometry": {"type": "Point", "coordinates": [100.82689462657042, -82.63656864335523]}}, {"type": "Feature", "properties": {"norad_id": 58660, "name": "TIANMU-1 19", "group": "weather", "lat": -69.94414831108067, "lon": -96.08594159989735, "alt_km": 486.5446831670615, "timestamp": "2025-12-19T20:42:59.724151+00:00", "meta": {"OBJECT_NAME": "TIANMU-1 19", "OBJECT_ID": "2023-208A", "EPOCH": "2025-12-19T07:02:46.445568", "MEAN_MOTION": 15.27964533, "ECCENTRICITY": 0.00043965, "INCLINATION": 97.4394, "RA_OF_ASC_NODE": 104.3182, "ARG_OF_PERICENTER": 224.0153, "MEAN_ANOMALY": 136.0736, "EPHEMERIS_TYPE": 0, "CLASSIFICATION_TYPE": "U", "NORAD_CAT_ID": 58660, "ELEMENT_SET_NO": 999, "REV_AT_EPOCH": 10982, "BSTAR": 0.00025712559, "MEAN_MOTION_DOT": 6.943e-05, "MEAN_MOTION_DDOT": 0}, "tle": {"line1": "1 58660U 23208A   25353.29359312  .00006943  00000+0  25713-3 0  9994", "line2": "2 58660  97.4394 104.3182 0004396 224.0153 136.0736 15.27964533109822"}}, "geometry": {"type": "Point", "coordinates": [-96.08594159989735, -69.94414831108067]}}, {"type": "Feature", "properties": {"norad_id": 58661, "name": "TIANMU-1 20", "group": "weather", "lat": -4.056950261036329, "lon": 105.87192201244507, "alt_km": 484.1370598609601, "timestamp": "2025-12-19T20:42:59.724161+00:00", "meta": {"OBJECT_NAME": "TIANMU-1 20", "OBJECT_ID": "2023-208B", "EPOCH": "2025-12-19T06:35:59.750304", "MEAN_MOTION": 15.29154375, "ECCENTRICITY": 0.00065006, "INCLINATION": 97.4332, "RA_OF_ASC_NODE": 104.7537, "ARG_OF_PERICENTER": 238.3802, "MEAN_ANOMALY": 121.6804, "EPHEMERIS_TYPE": 0, "CLASSIFICATION_TYPE": "U", "NORAD_CAT_ID": 58661, "ELEMENT_SET_NO": 999, "REV_AT_EPOCH": 10989, "BSTAR": 0.00025974196, "MEAN_MOTION_DOT": 7.278e-05, "MEAN_MOTION_DDOT": 0}, "tle": {"line1": "1 58661U 23208B   25353.27499711  .00007278  00000+0  25974-3 0  9992", "line2": "2 58661  97.4332 104.7537 0006500 238.3802 121.6804 15.29154375109891"}}, "geometry": {"type": "Point", "coordinates": [105.87192201244507, -4.056950261036329]}}]}